CCSDS_OMM_VERS = 2.0
CREATION_DATE  = 
ORIGINATOR     = 

OBJECT_NAME    = SL-14 R/B
OBJECT_ID      = 1986-046B
CENTER_NAME    = EARTH
REF_FRAME      = TEME
TIME_SYSTEM    = UTC
MEAN_ELEMENT_THEORY = SGP/SGP4

EPOCH          = 2026-01-07T20:23:47.504832
MEAN_MOTION    = 14.85520882
ECCENTRICITY   = .00244724
INCLINATION    = 82.4833
RA_OF_ASC_NODE = 137.6569
ARG_OF_PERICENTER = 70.4067
MEAN_ANOMALY   = 289.9788

EPHEMERIS_TYPE = 0
CLASSIFICATION_TYPE = U
NORAD_CAT_ID   = 16792
ELEMENT_SET_NO = 999
REV_AT_EPOCH   = 11737
BSTAR          = .72764715E-4
MEAN_MOTION_DOT = .656E-5
MEAN_MOTION_DDOT = 0

CCSDS_OMM_VERS = 2.0
CREATION_DATE  = 
ORIGINATOR     = 

OBJECT_NAME    = SL-14 R/B
OBJECT_ID      = 1986-055B
CENTER_NAME    = EARTH
REF_FRAME      = TEME
TIME_SYSTEM    = UTC
MEAN_ELEMENT_THEORY = SGP/SGP4

EPOCH          = 2026-01-07T23:48:54.160128
MEAN_MOTION    = 14.85563808
ECCENTRICITY   = .00191401
INCLINATION    = 82.5200
RA_OF_ASC_NODE = 183.7034
ARG_OF_PERICENTER = 168.8171
MEAN_ANOMALY   = 307.4198

EPHEMERIS_TYPE = 0
CLASSIFICATION_TYPE = U
NORAD_CAT_ID   = 16882
ELEMENT_SET_NO = 999
REV_AT_EPOCH   = 11035
BSTAR          = .64405845E-4
MEAN_MOTION_DOT = .583E-5
MEAN_MOTION_DDOT = 0

CCSDS_OMM_VERS = 2.0
CREATION_DATE  = 
ORIGINATOR     = 

OBJECT_NAME    = AJISAI (EGS)
OBJECT_ID      = 1986-061A
CENTER_NAME    = EARTH
REF_FRAME      = TEME
TIME_SYSTEM    = UTC
MEAN_ELEMENT_THEORY = SGP/SGP4

EPOCH          = 2026-01-07T22:13:19.260768
MEAN_MOTION    = 12.44514734
ECCENTRICITY   = .00113155
INCLINATION    = 50.0097
RA_OF_ASC_NODE = 280.1978
ARG_OF_PERICENTER = 131.6297
MEAN_ANOMALY   = 310.2025

EPHEMERIS_TYPE = 0
CLASSIFICATION_TYPE = U
NORAD_CAT_ID   = 16908
ELEMENT_SET_NO = 999
REV_AT_EPOCH   = 46043
BSTAR          = .1539065E-3
MEAN_MOTION_DOT = -.76E-6
MEAN_MOTION_DDOT = 0

CCSDS_OMM_VERS = 2.0
CREATION_DATE  = 
ORIGINATOR     = 

OBJECT_NAME    = COSMOS 1812
OBJECT_ID      = 1987-003A
CENTER_NAME    = EARTH
REF_FRAME      = TEME
TIME_SYSTEM    = UTC
MEAN_ELEMENT_THEORY = SGP/SGP4

EPOCH          = 2026-01-07T23:24:07.659360
MEAN_MOTION    = 15.82215929
ECCENTRICITY   = .00040598
INCLINATION    = 82.4843
RA_OF_ASC_NODE = 263.4906
ARG_OF_PERICENTER = 57.8344
MEAN_ANOMALY   = 302.3317

EPHEMERIS_TYPE = 0
CLASSIFICATION_TYPE = U
NORAD_CAT_ID   = 17295
ELEMENT_SET_NO = 999
REV_AT_EPOCH   = 13479
BSTAR          = .60380586E-3
MEAN_MOTION_DOT = .125157E-2
MEAN_MOTION_DDOT = 0

CCSDS_OMM_VERS = 2.0
CREATION_DATE  = 
ORIGINATOR     = 

OBJECT_NAME    = SL-14 R/B
OBJECT_ID      = 1987-024B
CENTER_NAME    = EARTH
REF_FRAME      = TEME
TIME_SYSTEM    = UTC
MEAN_ELEMENT_THEORY = SGP/SGP4

EPOCH          = 2026-01-07T21:43:42.821472
MEAN_MOTION    = 14.86060090
ECCENTRICITY   = .00196959
INCLINATION    = 82.5292
RA_OF_ASC_NODE = 149.8750
ARG_OF_PERICENTER = 101.3485
MEAN_ANOMALY   = 258.9946

EPHEMERIS_TYPE = 0
CLASSIFICATION_TYPE = U
NORAD_CAT_ID   = 17567
ELEMENT_SET_NO = 999
REV_AT_EPOCH   = 7910
BSTAR          = .66476573E-4
MEAN_MOTION_DOT = .608E-5
MEAN_MOTION_DDOT = 0

CCSDS_OMM_VERS = 2.0
CREATION_DATE  = 
ORIGINATOR     = 

OBJECT_NAME    = COSMOS 1833
OBJECT_ID      = 1987-027A
CENTER_NAME    = EARTH
REF_FRAME      = TEME
TIME_SYSTEM    = UTC
MEAN_ELEMENT_THEORY = SGP/SGP4

EPOCH          = 2026-01-07T15:03:10.616544
MEAN_MOTION    = 14.13038449
ECCENTRICITY   = .00237667
INCLINATION    = 70.9187
RA_OF_ASC_NODE = 94.3607
ARG_OF_PERICENTER = 295.8106
MEAN_ANOMALY   = 64.0563

EPHEMERIS_TYPE = 0
CLASSIFICATION_TYPE = U
NORAD_CAT_ID   = 17589
ELEMENT_SET_NO = 999
REV_AT_EPOCH   = 169
BSTAR          = .21622961E-3
MEAN_MOTION_DOT = .356E-5
MEAN_MOTION_DDOT = 0

CCSDS_OMM_VERS = 2.0
CREATION_DATE  = 
ORIGINATOR     = 

OBJECT_NAME    = SL-16 R/B
OBJECT_ID      = 1987-027B
CENTER_NAME    = EARTH
REF_FRAME      = TEME
TIME_SYSTEM    = UTC
MEAN_ELEMENT_THEORY = SGP/SGP4

EPOCH          = 2026-01-07T20:21:35.302464
MEAN_MOTION    = 14.17157951
ECCENTRICITY   = .00067398
INCLINATION    = 71.0030
RA_OF_ASC_NODE = 44.7023
ARG_OF_PERICENTER = 231.8042
MEAN_ANOMALY   = 128.2475

EPHEMERIS_TYPE = 0
CLASSIFICATION_TYPE = U
NORAD_CAT_ID   = 17590
ELEMENT_SET_NO = 999
REV_AT_EPOCH   = 672
BSTAR          = .14892435E-3
MEAN_MOTION_DOT = .252E-5
MEAN_MOTION_DDOT = 0

CCSDS_OMM_VERS = 2.0
CREATION_DATE  = 
ORIGINATOR     = 

OBJECT_NAME    = SL-14 R/B
OBJECT_ID      = 1987-038B
CENTER_NAME    = EARTH
REF_FRAME      = TEME
TIME_SYSTEM    = UTC
MEAN_ELEMENT_THEORY = SGP/SGP4

EPOCH          = 2026-01-07T22:28:23.581920
MEAN_MOTION    = 14.85293477
ECCENTRICITY   = .0019554
INCLINATION    = 82.5017
RA_OF_ASC_NODE = 354.0236
ARG_OF_PERICENTER = 10.2880
MEAN_ANOMALY   = 349.8732

EPHEMERIS_TYPE = 0
CLASSIFICATION_TYPE = U
NORAD_CAT_ID   = 17912
ELEMENT_SET_NO = 999
REV_AT_EPOCH   = 7021
BSTAR          = .62725492E-4
MEAN_MOTION_DOT = .564E-5
MEAN_MOTION_DDOT = 0

CCSDS_OMM_VERS = 2.0
CREATION_DATE  = 
ORIGINATOR     = 

OBJECT_NAME    = COSMOS 1844
OBJECT_ID      = 1987-041A
CENTER_NAME    = EARTH
REF_FRAME      = TEME
TIME_SYSTEM    = UTC
MEAN_ELEMENT_THEORY = SGP/SGP4

EPOCH          = 2026-01-07T20:50:14.370432
MEAN_MOTION    = 14.14539257
ECCENTRICITY   = .00285374
INCLINATION    = 70.8991
RA_OF_ASC_NODE = 162.4621
ARG_OF_PERICENTER = 115.6889
MEAN_ANOMALY   = 244.7184

EPHEMERIS_TYPE = 0
CLASSIFICATION_TYPE = U
NORAD_CAT_ID   = 17973
ELEMENT_SET_NO = 999
REV_AT_EPOCH   = 99498
BSTAR          = .989858E-5
MEAN_MOTION_DOT = -.29E-6
MEAN_MOTION_DDOT = 0

CCSDS_OMM_VERS = 2.0
CREATION_DATE  = 
ORIGINATOR     = 

OBJECT_NAME    = SL-14 R/B
OBJECT_ID      = 1987-055B
CENTER_NAME    = EARTH
REF_FRAME      = TEME
TIME_SYSTEM    = UTC
MEAN_ELEMENT_THEORY = SGP/SGP4

EPOCH          = 2026-01-07T14:05:10.817664
MEAN_MOTION    = 14.85552574
ECCENTRICITY   = .00198462
INCLINATION    = 82.4980
RA_OF_ASC_NODE = 46.6257
ARG_OF_PERICENTER = 212.0654
MEAN_ANOMALY   = 147.9356

EPHEMERIS_TYPE = 0
CLASSIFICATION_TYPE = U
NORAD_CAT_ID   = 18153
ELEMENT_SET_NO = 999
REV_AT_EPOCH   = 6086
BSTAR          = .61355156E-4
MEAN_MOTION_DOT = .556E-5
MEAN_MOTION_DDOT = 0

CCSDS_OMM_VERS = 2.0
CREATION_DATE  = 
ORIGINATOR     = 

OBJECT_NAME    = COSMOS 1867
OBJECT_ID      = 1987-060A
CENTER_NAME    = EARTH
REF_FRAME      = TEME
TIME_SYSTEM    = UTC
MEAN_ELEMENT_THEORY = SGP/SGP4

EPOCH          = 2026-01-07T15:52:32.491488
MEAN_MOTION    = 14.31491616
ECCENTRICITY   = .0013801
INCLINATION    = 65.0111
RA_OF_ASC_NODE = 117.6120
ARG_OF_PERICENTER = 273.6804
MEAN_ANOMALY   = 86.2703

EPHEMERIS_TYPE = 0
CLASSIFICATION_TYPE = U
NORAD_CAT_ID   = 18187
ELEMENT_SET_NO = 999
REV_AT_EPOCH   = 1120
BSTAR          = .42541826E-4
MEAN_MOTION_DOT = .13E-6
MEAN_MOTION_DDOT = 0

CCSDS_OMM_VERS = 2.0
CREATION_DATE  = 
ORIGINATOR     = 

OBJECT_NAME    = SL-14 R/B
OBJECT_ID      = 1988-001B
CENTER_NAME    = EARTH
REF_FRAME      = TEME
TIME_SYSTEM    = UTC
MEAN_ELEMENT_THEORY = SGP/SGP4

EPOCH          = 2026-01-07T21:57:39.367872
MEAN_MOTION    = 14.85455643
ECCENTRICITY   = .00196015
INCLINATION    = 82.5122
RA_OF_ASC_NODE = 252.5293
ARG_OF_PERICENTER = 80.0301
MEAN_ANOMALY   = 280.3126

EPHEMERIS_TYPE = 0
CLASSIFICATION_TYPE = U
NORAD_CAT_ID   = 18749
ELEMENT_SET_NO = 999
REV_AT_EPOCH   = 3300
BSTAR          = .50859803E-4
MEAN_MOTION_DOT = .464E-5
MEAN_MOTION_DDOT = 0

