SL-14 R/B               
1 16792U 86046B   26007.84985538  .00000656  00000+0  72765-4 0  9991
2 16792  82.4833 137.6569 0024472  70.4067 289.9788 14.85520882117378
SL-14 R/B               
1 16882U 86055B   26007.99229352  .00000583  00000+0  64406-4 0  9994
2 16882  82.5200 183.7034 0019140 168.8171 307.4198 14.85563808110357
AJISAI (EGS)            
1 16908U 86061A   26007.92591737 -.00000076  00000+0  15391-3 0  9998
2 16908  50.0097 280.1978 0011315 131.6297 310.2025 12.44514734460437
COSMOS 1812             
1 17295U 87003A   26007.97508865  .00125157  00000+0  60381-3 0  9996
2 17295  82.4843 263.4906 0004059  57.8344 302.3317 15.82215929134791
SL-14 R/B               
1 17567U 87024B   26007.90535673  .00000608  00000+0  66477-4 0  9997
2 17567  82.5292 149.8750 0019695 101.3485 258.9946 14.86060090 79106
COSMOS 1833             
1 17589U 87027A   26007.62720621  .00000356  00000+0  21623-3 0  9995
2 17589  70.9187  94.3607 0023766 295.8106  64.0563 14.13038449  1695
SL-16 R/B               
1 17590U 87027B   26007.84832526  .00000252  00000+0  14892-3 0  9994
2 17590  71.0030  44.7023 0006739 231.8042 128.2475 14.17157951  6725
SL-14 R/B               
1 17912U 87038B   26007.93638405  .00000564  00000+0  62725-4 0  9999
2 17912  82.5017 354.0236 0019554  10.2880 349.8732 14.85293477 70217
COSMOS 1844             
1 17973U 87041A   26007.86822188 -.00000029  00000+0  98986-5 0  9991
2 17973  70.8991 162.4621 0028537 115.6889 244.7184 14.14539257994988
SL-14 R/B               
1 18153U 87055B   26007.58693076  .00000556  00000+0  61355-4 0  9991
2 18153  82.4980  46.6257 0019846 212.0654 147.9356 14.85552574 60860
COSMOS 1867             
1 18187U 87060A   26007.66148717  .00000013  00000+0  42542-4 0  9995
2 18187  65.0111 117.6120 0013801 273.6804  86.2703 14.31491616 11208
SL-14 R/B               
1 18749U 88001B   26007.91503898  .00000464  00000+0  50860-4 0  9990
2 18749  82.5122 252.5293 0019601  80.0301 280.3126 14.85455643 33001
